{
  "norad_id": 57136,
  "name": "STARLINK-6112",
  "history": [
    {
      "epoch": "2026-03-28T21:06:07.746048Z",
      "apogee_km": 486.29077118270106,
      "perigee_km": 484.84802009833675,
      "latitude_deg": 3.360452886877239e-05,
      "longitude_deg": 11.679090142128684,
      "height_km": 484.9504582645275,
      "semi_major_axis_km": 6863.706395640518,
      "eccentricity": 0.0001051,
      "inclination_deg": 43.0017,
      "raan_deg": 154.5047,
      "arg_perigee_deg": 303.2489,
      "mean_anomaly_deg": 56.8262,
      "mean_motion_rev_day": 15.26738704
    },
    {
      "epoch": "2026-03-30T12:21:19.762848Z",
      "apogee_km": 486.31549626524793,
      "perigee_km": 484.77899191036613,
      "latitude_deg": 5.891365832972837e-06,
      "longitude_deg": 132.04131433675346,
      "height_km": 485.19145823811397,
      "semi_major_axis_km": 6863.684244087806,
      "eccentricity": 0.00011193,
      "inclination_deg": 43.0,
      "raan_deg": 145.2791,
      "arg_perigee_deg": 279.919,
      "mean_anomaly_deg": 80.1535,
      "mean_motion_rev_day": 15.26746095
    },
    {
      "epoch": "2026-03-30T20:12:20.355264Z",
      "apogee_km": 486.30360693167586,
      "perigee_km": 484.6213387008884,
      "latitude_deg": 4.3213551512976314e-05,
      "longitude_deg": 12.12109131368233,
      "height_km": 485.11549751341255,
      "semi_major_axis_km": 6863.599472816282,
      "eccentricity": 0.00012255,
      "inclination_deg": 43.0003,
      "raan_deg": 143.4337,
      "arg_perigee_deg": 278.453,
      "mean_anomaly_deg": 81.6183,
      "mean_motion_rev_day": 15.2677438
    }
  ]
}